[{"OBJECT_NAME":"STARLINK-31726","OBJECT_ID":"2024-090K","EPOCH":"2026-03-09T07:07:35.009472","MEAN_MOTION":15.27579545,"ECCENTRICITY":5.785e-5,"INCLINATION":43.0034,"RA_OF_ASC_NODE":185.4077,"ARG_OF_PERICENTER":225.4163,"MEAN_ANOMALY":134.6642,"EPHEMERIS_TYPE":0,"CLASSIFICATION_TYPE":"U","NORAD_CAT_ID":59739,"ELEMENT_SET_NO":999,"REV_AT_EPOCH":10338,"BSTAR":-4.8632969e-5,"MEAN_MOTION_DOT":-1.6e-5,"MEAN_MOTION_DDOT":0},{"OBJECT_NAME":"COSMOS 546","OBJECT_ID":"1973-005A","EPOCH":"2026-03-09T21:40:39.247392","MEAN_MOTION":15.29707303,"ECCENTRICITY":0.00147738,"INCLINATION":50.6327,"RA_OF_ASC_NODE":289.914,"ARG_OF_PERICENTER":261.1516,"MEAN_ANOMALY":98.7778,"EPHEMERIS_TYPE":0,"CLASSIFICATION_TYPE":"U","NORAD_CAT_ID":6350,"ELEMENT_SET_NO":999,"REV_AT_EPOCH":92802,"BSTAR":9.142057e-5,"MEAN_MOTION_DOT":2.316e-5,"MEAN_MOTION_DDOT":0}]
